SL-8 R/B                
1 19257U 88053B   26075.83915080  .00000266  00000+0  94789-4 0  9996
2 19257  74.0451  99.2867 0021530 277.6487 255.3519 14.38920366977623
COSMOS 1975             
1 19573U 88093A   26075.14205762  .00005733  00000+0  20722-3 0  9993
2 19573  82.5174 111.2070 0012705 141.9143 218.2997 15.28164961 20399
SL-14 R/B               
1 19574U 88093B   26075.86987053  .00000533  00000+0  58502-4 0  9994
2 19574  82.5319  35.3036 0021202  18.7208  47.6479 14.85665601  2088
SL-16 R/B               
1 19650U 88102B   26075.61523554  .00000071  00000+0  60256-4 0  9991
2 19650  70.9992 136.9258 0014442 350.7614   9.3241 14.16155748927878
INTERCOSMOS 24          
1 20261U 89080A   26075.79239119  .00000606  00000+0  18029-3 0  9991
2 20261  82.6018  99.7779 1186666 276.3173  70.4368 12.59568570667699
SL-14 R/B               
1 20262U 89080C   26075.19746626  .00000547  00000+0  15847-3 0  9991
2 20262  82.5969 169.0101 1230735 169.8799 192.9752 12.50501584660964
DELTA 1 R/B             
1 20323U 89089B   26075.17353904  .00000379  00000+0  10199-3 0  9997
2 20323  97.0701 281.5808 0070683 101.8684 259.0452 14.50668834896678
ARIANE 40 R/B           
1 20443U 90005H   26075.62364837  .00000246  00000+0  91661-4 0  9994
2 20443  98.3068 136.0780 0010281 177.3472 182.7772 14.39875167893800
DELTA 2 R/B(1)          
1 20453U 90008B   26074.85325920  .00054135  00000+0  61820-3 0  9991
2 20453  35.6032 134.3777 0083193 315.6893  43.7205 15.56824885927096
COSMOS 2058             
1 20465U 90010A   26075.86476219  .00003454  00000+0  20286-3 0  9996
2 20465  82.4666  40.3569 0008352 319.9487  40.1126 15.11387481943321
SL-14 R/B               
1 20466U 90010B   26075.76877435  .00000425  00000+0  48631-4 0  9991
2 20466  82.4987 260.7370 0018327 277.1901  82.7230 14.83575325929534
SL-14 R/B               
1 20511U 90018B   26075.86092756  .00000458  00000+0  54434-4 0  9990
2 20511  82.5215 216.3868 0017554  70.3986 289.9121 14.82152756923640
HST                     
1 20580U 90037B   26075.85896686  .00006574  00000+0  21489-3 0  9998
2 20580  28.4725 351.0893 0001690 199.4729 160.5802 15.29601369774418
SL-16 R/B               
1 20625U 90046B   26075.83707010  .00000034  00000+0  42081-4 0  9995
2 20625  70.9974 282.9030 0016153 290.0556  69.8827 14.15011254849409
COSMOS 2084             
1 20663U 90055A   26075.82819931  .00001900  00000+0  14444-3 0  9996
2 20663  62.7909 311.2312 0015933 191.9958 168.0765 15.05692221937395
SL-6 R/B(2)             
1 20666U 90055D   26075.82061865  .00001947  00000+0  15528-3 0  9999
2 20666  62.7822 229.5990 0025936 348.7791  11.2726 15.03630990939263
SL-8 R/B                
1 20775U 90078B   26075.83214284  .00012939  00000+0  38171-3 0  9993
2 20775  82.9000 244.8852 0360657 349.9557   9.4576 14.89307768810366
