[{"OBJECT_NAME":"SL-8 R/B","OBJECT_ID":"1988-053B","EPOCH":"2026-03-16T20:08:22.629120","MEAN_MOTION":14.38920366,"ECCENTRICITY":0.002153,"INCLINATION":74.0451,"RA_OF_ASC_NODE":99.2867,"ARG_OF_PERICENTER":277.6487,"MEAN_ANOMALY":255.3519,"EPHEMERIS_TYPE":0,"CLASSIFICATION_TYPE":"U","NORAD_CAT_ID":19257,"ELEMENT_SET_NO":999,"REV_AT_EPOCH":97762,"BSTAR":9.4789e-5,"MEAN_MOTION_DOT":2.66e-6,"MEAN_MOTION_DDOT":0},{"OBJECT_NAME":"COSMOS 1975","OBJECT_ID":"1988-093A","EPOCH":"2026-03-16T03:24:33.778368","MEAN_MOTION":15.28164961,"ECCENTRICITY":0.00127054,"INCLINATION":82.5174,"RA_OF_ASC_NODE":111.207,"ARG_OF_PERICENTER":141.9143,"MEAN_ANOMALY":218.2997,"EPHEMERIS_TYPE":0,"CLASSIFICATION_TYPE":"U","NORAD_CAT_ID":19573,"ELEMENT_SET_NO":999,"REV_AT_EPOCH":2039,"BSTAR":0.00020721773,"MEAN_MOTION_DOT":5.733e-5,"MEAN_MOTION_DDOT":0},{"OBJECT_NAME":"SL-14 R/B","OBJECT_ID":"1988-093B","EPOCH":"2026-03-16T20:52:36.813792","MEAN_MOTION":14.85665601,"ECCENTRICITY":0.0021202,"INCLINATION":82.5319,"RA_OF_ASC_NODE":35.3036,"ARG_OF_PERICENTER":18.7208,"MEAN_ANOMALY":47.6479,"EPHEMERIS_TYPE":0,"CLASSIFICATION_TYPE":"U","NORAD_CAT_ID":19574,"ELEMENT_SET_NO":999,"REV_AT_EPOCH":208,"BSTAR":5.8502e-5,"MEAN_MOTION_DOT":5.33e-6,"MEAN_MOTION_DDOT":0},{"OBJECT_NAME":"SL-16 R/B","OBJECT_ID":"1988-102B","EPOCH":"2026-03-16T14:45:56.350656","MEAN_MOTION":14.16155748,"ECCENTRICITY":0.0014442,"INCLINATION":70.9992,"RA_OF_ASC_NODE":136.9258,"ARG_OF_PERICENTER":350.7614,"MEAN_ANOMALY":9.3241,"EPHEMERIS_TYPE":0,"CLASSIFICATION_TYPE":"U","NORAD_CAT_ID":19650,"ELEMENT_SET_NO":999,"REV_AT_EPOCH":92787,"BSTAR":6.0256e-5,"MEAN_MOTION_DOT":7.1e-7,"MEAN_MOTION_DDOT":0},{"OBJECT_NAME":"INTERCOSMOS 24","OBJECT_ID":"1989-080A","EPOCH":"2026-03-16T19:01:02.598816","MEAN_MOTION":12.5956857,"ECCENTRICITY":0.1186666,"INCLINATION":82.6018,"RA_OF_ASC_NODE":99.7779,"ARG_OF_PERICENTER":276.3173,"MEAN_ANOMALY":70.4368,"EPHEMERIS_TYPE":0,"CLASSIFICATION_TYPE":"U","NORAD_CAT_ID":20261,"ELEMENT_SET_NO":999,"REV_AT_EPOCH":66769,"BSTAR":0.00018029,"MEAN_MOTION_DOT":6.06e-6,"MEAN_MOTION_DDOT":0},{"OBJECT_NAME":"SL-14 R/B","OBJECT_ID":"1989-080C","EPOCH":"2026-03-16T04:44:21.084864","MEAN_MOTION":12.50501584,"ECCENTRICITY":0.12307351,"INCLINATION":82.5969,"RA_OF_ASC_NODE":169.0101,"ARG_OF_PERICENTER":169.8799,"MEAN_ANOMALY":192.9752,"EPHEMERIS_TYPE":0,"CLASSIFICATION_TYPE":"U","NORAD_CAT_ID":20262,"ELEMENT_SET_NO":999,"REV_AT_EPOCH":66096,"BSTAR":0.00015846666,"MEAN_MOTION_DOT":5.47e-6,"MEAN_MOTION_DDOT":0},{"OBJECT_NAME":"DELTA 1 R/B","OBJECT_ID":"1989-089B","EPOCH":"2026-03-16T04:09:53.773056","MEAN_MOTION":14.50668834,"ECCENTRICITY":0.00706839,"INCLINATION":97.0701,"RA_OF_ASC_NODE":281.5808,"ARG_OF_PERICENTER":101.8684,"MEAN_ANOMALY":259.0452,"EPHEMERIS_TYPE":0,"CLASSIFICATION_TYPE":"U","NORAD_CAT_ID":20323,"ELEMENT_SET_NO":999,"REV_AT_EPOCH":89667,"BSTAR":0.00010199271,"MEAN_MOTION_DOT":3.79e-6,"MEAN_MOTION_DDOT":0},{"OBJECT_NAME":"ARIANE 40 R/B","OBJECT_ID":"1990-005H","EPOCH":"2026-03-16T14:58:03.219168","MEAN_MOTION":14.39875167,"ECCENTRICITY":0.0010281,"INCLINATION":98.3068,"RA_OF_ASC_NODE":136.078,"ARG_OF_PERICENTER":177.3472,"MEAN_ANOMALY":182.7772,"EPHEMERIS_TYPE":0,"CLASSIFICATION_TYPE":"U","NORAD_CAT_ID":20443,"ELEMENT_SET_NO":999,"REV_AT_EPOCH":89380,"BSTAR":9.1661e-5,"MEAN_MOTION_DOT":2.46e-6,"MEAN_MOTION_DDOT":0},{"OBJECT_NAME":"DELTA 2 R/B(1)","OBJECT_ID":"1990-008B","EPOCH":"2026-03-15T20:28:41.594880","MEAN_MOTION":15.56824885,"ECCENTRICITY":0.00831934,"INCLINATION":35.6032,"RA_OF_ASC_NODE":134.3777,"ARG_OF_PERICENTER":315.6893,"MEAN_ANOMALY":43.7205,"EPHEMERIS_TYPE":0,"CLASSIFICATION_TYPE":"U","NORAD_CAT_ID":20453,"ELEMENT_SET_NO":999,"REV_AT_EPOCH":92709,"BSTAR":0.00061820102,"MEAN_MOTION_DOT":0.00054135,"MEAN_MOTION_DDOT":0},{"OBJECT_NAME":"COSMOS 2058","OBJECT_ID":"1990-010A","EPOCH":"2026-03-16T20:45:15.453216","MEAN_MOTION":15.11387481,"ECCENTRICITY":0.0008352,"INCLINATION":82.4666,"RA_OF_ASC_NODE":40.3569,"ARG_OF_PERICENTER":319.9487,"MEAN_ANOMALY":40.1126,"EPHEMERIS_TYPE":0,"CLASSIFICATION_TYPE":"U","NORAD_CAT_ID":20465,"ELEMENT_SET_NO":999,"REV_AT_EPOCH":94332,"BSTAR":0.00020286,"MEAN_MOTION_DOT":3.454e-5,"MEAN_MOTION_DDOT":0},{"OBJECT_NAME":"SL-14 R/B","OBJECT_ID":"1990-010B","EPOCH":"2026-03-16T18:27:02.103840","MEAN_MOTION":14.83575325,"ECCENTRICITY":0.0018327,"INCLINATION":82.4987,"RA_OF_ASC_NODE":260.737,"ARG_OF_PERICENTER":277.1901,"MEAN_ANOMALY":82.723,"EPHEMERIS_TYPE":0,"CLASSIFICATION_TYPE":"U","NORAD_CAT_ID":20466,"ELEMENT_SET_NO":999,"REV_AT_EPOCH":92953,"BSTAR":4.8631e-5,"MEAN_MOTION_DOT":4.25e-6,"MEAN_MOTION_DDOT":0},{"OBJECT_NAME":"SL-14 R/B","OBJECT_ID":"1990-018B","EPOCH":"2026-03-16T20:39:44.141184","MEAN_MOTION":14.82152756,"ECCENTRICITY":0.0017554,"INCLINATION":82.5215,"RA_OF_ASC_NODE":216.3868,"ARG_OF_PERICENTER":70.3986,"MEAN_ANOMALY":289.9121,"EPHEMERIS_TYPE":0,"CLASSIFICATION_TYPE":"U","NORAD_CAT_ID":20511,"ELEMENT_SET_NO":999,"REV_AT_EPOCH":92364,"BSTAR":5.4434e-5,"MEAN_MOTION_DOT":4.58e-6,"MEAN_MOTION_DDOT":0},{"OBJECT_NAME":"HST","OBJECT_ID":"1990-037B","EPOCH":"2026-03-16T20:36:54.736704","MEAN_MOTION":15.29601369,"ECCENTRICITY":0.000169,"INCLINATION":28.4725,"RA_OF_ASC_NODE":351.0893,"ARG_OF_PERICENTER":199.4729,"MEAN_ANOMALY":160.5802,"EPHEMERIS_TYPE":0,"CLASSIFICATION_TYPE":"U","NORAD_CAT_ID":20580,"ELEMENT_SET_NO":999,"REV_AT_EPOCH":77441,"BSTAR":0.00021489,"MEAN_MOTION_DOT":6.574e-5,"MEAN_MOTION_DDOT":0},{"OBJECT_NAME":"SL-16 R/B","OBJECT_ID":"1990-046B","EPOCH":"2026-03-16T20:05:22.856640","MEAN_MOTION":14.15011254,"ECCENTRICITY":0.0016153,"INCLINATION":70.9974,"RA_OF_ASC_NODE":282.903,"ARG_OF_PERICENTER":290.0556,"MEAN_ANOMALY":69.8827,"EPHEMERIS_TYPE":0,"CLASSIFICATION_TYPE":"U","NORAD_CAT_ID":20625,"ELEMENT_SET_NO":999,"REV_AT_EPOCH":84940,"BSTAR":4.2081e-5,"MEAN_MOTION_DOT":3.4e-7,"MEAN_MOTION_DDOT":0},{"OBJECT_NAME":"COSMOS 2084","OBJECT_ID":"1990-055A","EPOCH":"2026-03-16T19:52:36.420384","MEAN_MOTION":15.05692221,"ECCENTRICITY":0.0015933,"INCLINATION":62.7909,"RA_OF_ASC_NODE":311.2312,"ARG_OF_PERICENTER":191.9958,"MEAN_ANOMALY":168.0765,"EPHEMERIS_TYPE":0,"CLASSIFICATION_TYPE":"U","NORAD_CAT_ID":20663,"ELEMENT_SET_NO":999,"REV_AT_EPOCH":93739,"BSTAR":0.00014444,"MEAN_MOTION_DOT":1.9e-5,"MEAN_MOTION_DDOT":0},{"OBJECT_NAME":"SL-6 R/B(2)","OBJECT_ID":"1990-055D","EPOCH":"2026-03-16T19:41:41.451360","MEAN_MOTION":15.0363099,"ECCENTRICITY":0.0025936,"INCLINATION":62.7822,"RA_OF_ASC_NODE":229.599,"ARG_OF_PERICENTER":348.7791,"MEAN_ANOMALY":11.2726,"EPHEMERIS_TYPE":0,"CLASSIFICATION_TYPE":"U","NORAD_CAT_ID":20666,"ELEMENT_SET_NO":999,"REV_AT_EPOCH":93926,"BSTAR":0.00015528,"MEAN_MOTION_DOT":1.947e-5,"MEAN_MOTION_DDOT":0},{"OBJECT_NAME":"SL-8 R/B","OBJECT_ID":"1990-078B","EPOCH":"2026-03-16T19:58:17.141376","MEAN_MOTION":14.89307768,"ECCENTRICITY":0.0360657,"INCLINATION":82.9,"RA_OF_ASC_NODE":244.8852,"ARG_OF_PERICENTER":349.9557,"MEAN_ANOMALY":9.4576,"EPHEMERIS_TYPE":0,"CLASSIFICATION_TYPE":"U","NORAD_CAT_ID":20775,"ELEMENT_SET_NO":999,"REV_AT_EPOCH":81036,"BSTAR":0.00038171,"MEAN_MOTION_DOT":0.00012939,"MEAN_MOTION_DDOT":0}]
